[{"OBJECT_NAME":"ION SCV-004","OBJECT_ID":"2022-002K","EPOCH":"2026-03-09T16:32:03.244416","MEAN_MOTION":15.29369331,"ECCENTRICITY":0.00072157,"INCLINATION":97.2961,"RA_OF_ASC_NODE":128.2294,"ARG_OF_PERICENTER":1.6783,"MEAN_ANOMALY":358.448,"EPHEMERIS_TYPE":0,"CLASSIFICATION_TYPE":"U","NORAD_CAT_ID":50993,"ELEMENT_SET_NO":999,"REV_AT_EPOCH":23008,"BSTAR":0.00023198467,"MEAN_MOTION_DOT":6.538e-5,"MEAN_MOTION_DDOT":0},{"OBJECT_NAME":"STARLINK-31102","OBJECT_ID":"2024-002L","EPOCH":"2026-03-09T18:16:57.902592","MEAN_MOTION":15.30183866,"ECCENTRICITY":0.00012399,"INCLINATION":53.159,"RA_OF_ASC_NODE":229.7879,"ARG_OF_PERICENTER":98.4344,"MEAN_ANOMALY":261.6797,"EPHEMERIS_TYPE":0,"CLASSIFICATION_TYPE":"U","NORAD_CAT_ID":58715,"ELEMENT_SET_NO":999,"REV_AT_EPOCH":12202,"BSTAR":8.3086465e-5,"MEAN_MOTION_DOT":2.101e-5,"MEAN_MOTION_DDOT":0}]
